{
  "49408": {
    "noradId": "49408",
    "tle": [
      "1 49408C 21104A   25284.13312500  .00013276  00000+0  83261-3 0  2847",
      "2 49408  53.2151 180.5371 0001386  92.8363 214.6778 15.08820678    19"
    ]
  },
  "49409": {
    "noradId": "49409",
    "tle": [
      "1 49409C 21104B   25284.11506944  .00011163  00000+0  70005-3 0  2848",
      "2 49409  53.2140 180.5903 0001291  91.3664  43.2340 15.08824407    17"
    ]
  },
  "49410": {
    "noradId": "49410",
    "tle": [
      "1 49410C 21104C   25284.10881944  .00007418  00000+0  46526-3 0  2844",
      "2 49410  53.2149 180.6266 0001300  94.5534  40.8631 15.08825455    13"
    ]
  },
  "49411": {
    "noradId": "49411",
    "tle": [
      "1 49411C 21104D   25284.12895833  .00005448  00000+0  34162-3 0  2843",
      "2 49411  53.2134 170.5264 0001381  90.2507 194.8205 15.08830672    10"
    ]
  },
  "49413": {
    "noradId": "49413",
    "tle": [
      "1 49413C 21104F   25284.13590278  .00015426  00000+0  96742-3 0  2840",
      "2 49413  53.2133 170.5059 0001352  92.3075 245.3054 15.08819120    13"
    ]
  },
  "49414": {
    "noradId": "49414",
    "tle": [
      "1 49414C 21104G   25284.12756944  .00011999  00000+0  75259-3 0  2845",
      "2 49414  53.2151 180.5327 0001347  92.5890 169.9742 15.08818195    10"
    ]
  },
  "49415": {
    "noradId": "49415",
    "tle": [
      "1 49415C 21104H   25284.12201389  .00009330  00000+0  58515-3 0  2846",
      "2 49415  53.2132 170.5580 0001430  86.0931 201.2492 15.08824669    12"
    ]
  },
  "49416": {
    "noradId": "49416",
    "tle": [
      "1 49416C 21104J   25284.13034722  .00012703  00000+0  79665-3 0  2840",
      "2 49416  53.2154 180.5204 0001430  90.1146 227.5296 15.08821095    18"
    ]
  },
  "49417": {
    "noradId": "49417",
    "tle": [
      "1 49417C 21104K   25284.12340278  .00019812  00000+0  12422-2 0  2841",
      "2 49417  53.2143 170.2040 0001413  78.4970  56.5560 15.08822301    11"
    ]
  },
  "49418": {
    "noradId": "49418",
    "tle": [
      "1 49418C 21104L   25284.12548611  .00012945  00000+0  81178-3 0  2848",
      "2 49418  53.2153 180.5423 0001509  93.3482 217.8593 15.08824380    19"
    ]
  },
  "49419": {
    "noradId": "49419",
    "tle": [
      "1 49419C 21104M   25284.12756944  .00011122  00000+0  69754-3 0  2841",
      "2 49419  53.2149 180.5303 0002131  93.5520 288.9743 15.08820725    14"
    ]
  },
  "49420": {
    "noradId": "49420",
    "tle": [
      "1 49420C 21104N   25284.11715278  .00017263  00000+0  10828-2 0  2846",
      "2 49420  53.2153 180.5795 0001504  84.7536 201.1382 15.08811141    16"
    ]
  },
  "49421": {
    "noradId": "49421",
    "tle": [
      "1 49421C 21104P   25284.12895833 -.00004724  00000+0 -29629-3 0  2844",
      "2 49421  53.2137 180.3336 0001338  88.8453  81.3616 15.08837622    16"
    ]
  },
  "49422": {
    "noradId": "49422",
    "tle": [
      "1 49422C 21104Q   25284.11993056  .00045703  00000+0  28674-2 0  2848",
      "2 49422  53.2140 180.8859 0001189  79.0766  76.4906 15.08773775    14"
    ]
  },
  "49423": {
    "noradId": "49423",
    "tle": [
      "1 49423C 21104R   25284.12826389  .00017654  00000+0  11073-2 0  2843",
      "2 49423  53.2152 180.7214 0001605  97.1024 269.0843 15.08811520    14"
    ]
  },
  "49424": {
    "noradId": "49424",
    "tle": [
      "1 49424C 21104S   25284.12618056  .00008563  00000+0  53699-3 0  2844",
      "2 49424  53.2145 180.5385 0001365  93.2555 301.7300 15.08828001    17"
    ]
  },
  "49425": {
    "noradId": "49425",
    "tle": [
      "1 49425C 21104T   25284.13729167  .00013633  00000+0  85515-3 0  2848",
      "2 49425  53.2136 180.4983 0001378  83.0048  87.1676 15.08813773    10"
    ]
  },
  "49426": {
    "noradId": "49426",
    "tle": [
      "1 49426C 21104U   25284.12965278  .00004125  00000+0  25866-3 0  2842",
      "2 49426  53.2141 180.5225 0001422  88.6455   5.1802 15.08838743    15"
    ]
  },
  "49427": {
    "noradId": "49427",
    "tle": [
      "1 49427C 21104V   25284.13520833  .00015103  00000+0  94709-3 0  2848",
      "2 49427  53.2134 180.5092 0001368  87.8075  91.0243 15.08823761    15"
    ]
  },
  "49428": {
    "noradId": "49428",
    "tle": [
      "1 49428C 21104W   25284.13034722  .00001900  00000+0  11912-3 0  2841",
      "2 49428  53.2149 180.4331 0001328  88.3520 169.3123 15.08835299    19"
    ]
  },
  "49430": {
    "noradId": "49430",
    "tle": [
      "1 49430C 21104Y   25284.13312500  .00011460  00000+0  71874-3 0  2842",
      "2 49430  53.2148 180.7852 0001427  83.3276 324.0083 15.08821453    17"
    ]
  },
  "49431": {
    "noradId": "49431",
    "tle": [
      "1 49431C 21104Z   25284.13034722  .00008940  00000+0  56072-3 0  2842",
      "2 49431  53.2154 180.7030 0001349  90.7452 206.7587 15.08824155    11"
    ]
  },
  "49432": {
    "noradId": "49432",
    "tle": [
      "1 49432C 21104AA  25284.12756944  .00009998  00000+0  62695-3 0  2841",
      "2 49432  53.2139 170.5335 0001249  88.8863 263.4360 15.08827196    10"
    ]
  },
  "49433": {
    "noradId": "49433",
    "tle": [
      "1 49433C 21104AB  25284.11854167  .00006131  00000+0  38446-3 0  2840",
      "2 49433  53.2142 160.5727 0001456  85.8025 217.6622 15.08830231    12"
    ]
  },
  "49434": {
    "noradId": "49434",
    "tle": [
      "1 49434C 21104AC  25284.12895833 -.00077752  00000+0 -48691-2 0  2848",
      "2 49434  53.2136 180.6797 0001438  84.0027  25.9201 15.08964943    10"
    ]
  },
  "49435": {
    "noradId": "49435",
    "tle": [
      "1 49435C 21104AD  25284.13104167  .00010946  00000+0  68652-3 0  2843",
      "2 49435  53.2144 160.5164 0001505  89.3017 256.9223 15.08820806    16"
    ]
  },
  "49436": {
    "noradId": "49436",
    "tle": [
      "1 49436C 21104AE  25284.12687500  .00082617  00000+0  51846-2 0  2840",
      "2 49436  53.2144 160.5352 0001398  88.5413 240.2025 15.08728552    18"
    ]
  },
  "49437": {
    "noradId": "49437",
    "tle": [
      "1 49437C 21104AF  25284.12826389  .00013173  00000+0  82627-3 0  2844",
      "2 49437  53.2139 160.5284 0001430  79.8621 296.4615 15.08813910    19"
    ]
  },
  "49438": {
    "noradId": "49438",
    "tle": [
      "1 49438C 21104AG  25284.12756944  .00014842  00000+0  93084-3 0  2847",
      "2 49438  53.2135 160.4664 0001221  88.0767 339.3079 15.08817165    15"
    ]
  },
  "49440": {
    "noradId": "49440",
    "tle": [
      "1 49440C 21104AJ  25284.12895833  .00002274  00000+0  14259-3 0  2844",
      "2 49440  53.2134 160.5264 0001352  86.7451 333.3357 15.08835379    14"
    ]
  },
  "49441": {
    "noradId": "49441",
    "tle": [
      "1 49441C 21104AK  25284.12965278  .00012093  00000+0  75838-3 0  2846",
      "2 49441  53.2143 160.5230 0001339  98.8178  65.0278 15.08823485    19"
    ]
  },
  "49442": {
    "noradId": "49442",
    "tle": [
      "1 49442C 21104AL  25284.12618056  .00008021  00000+0  50297-3 0  2844",
      "2 49442  53.2134 160.5390 0001375  90.1601 334.8077 15.08831911    10"
    ]
  },
  "49443": {
    "noradId": "49443",
    "tle": [
      "1 49443C 21104AM  25284.12270833  .00013228  00000+0  82954-3 0  2842",
      "2 49443  53.2147 160.5543 0001371  92.7201  53.3994 15.08823212    11"
    ]
  },
  "49444": {
    "noradId": "49444",
    "tle": [
      "1 49444C 21104AN  25284.12131944  .00013201  00000+0  82790-3 0  2841",
      "2 49444  53.2133 160.5713 0001369  91.9153 321.4358 15.08819899    19"
    ]
  },
  "49445": {
    "noradId": "49445",
    "tle": [
      "1 49445C 21104AP  25284.12062500  .00002665  00000+0  16713-3 0  2847",
      "2 49445  53.2139 170.9585 0001469  84.1764  50.1427 15.08836381    19"
    ]
  },
  "49446": {
    "noradId": "49446",
    "tle": [
      "1 49446C 21104AQ  25284.13590278  .00006660  00000+0  41762-3 0  2848",
      "2 49446  53.2133 160.4954 0001357  92.9595  64.8438 15.08834128    14"
    ]
  },
  "49447": {
    "noradId": "49447",
    "tle": [
      "1 49447C 21104AR  25284.12548611  .00004231  00000+0  26538-3 0  2848",
      "2 49447  53.2149 170.5406 0001330  93.8301 312.3933 15.08826803    14"
    ]
  },
  "49449": {
    "noradId": "49449",
    "tle": [
      "1 49449C 21104AT  25284.12965278  .00011976  00000+0  75111-3 0  2847",
      "2 49449  53.2153 170.4700 0001350  86.8165  36.8855 15.08818824    14"
    ]
  },
  "49450": {
    "noradId": "49450",
    "tle": [
      "1 49450C 21104AU  25284.13798611  .00009283  00000+0  58208-3 0  2841",
      "2 49450  53.2146 170.5242 0000600  75.8932 358.2036 15.08831224    18"
    ]
  },
  "49451": {
    "noradId": "49451",
    "tle": [
      "1 49451C 21104AV  25284.12756944  .00014530  00000+0  91123-3 0  2848",
      "2 49451  53.2152 170.5324 0001110  96.2370   1.3020 15.08821586    16"
    ]
  },
  "49452": {
    "noradId": "49452",
    "tle": [
      "1 49452C 21104AW  25284.12409722  .00006991  00000+0  43838-3 0  2840",
      "2 49452  53.2148 170.5867 0001367  86.3046  47.1239 15.08830157    12"
    ]
  },
  "49453": {
    "noradId": "49453",
    "tle": [
      "1 49453C 21104AX  25284.13034722  .00013863  00000+0  86941-3 0  2844",
      "2 49453  53.2154 170.6080 0001465  90.8936  16.4944 15.08820299    13"
    ]
  },
  "49454": {
    "noradId": "49454",
    "tle": [
      "1 49454C 21104AY  25284.12340278  .00016816  00000+0  10544-2 0  2846",
      "2 49454  53.2149 170.5489 0001386  87.5260   7.3646 15.08823944    13"
    ]
  },
  "49455": {
    "noradId": "49455",
    "tle": [
      "1 49455C 21104AZ  25284.12270833 -.00000793  00000+0 -49747-4 0  2844",
      "2 49455  53.2137 170.5534 0001452  78.1783  92.9400 15.08834969    19"
    ]
  },
  "49456": {
    "noradId": "49456",
    "tle": [
      "1 49456C 21104BA  25284.12687500  .00013618  00000+0  85392-3 0  2841",
      "2 49456  53.2149 170.5826 0001453  84.7500  43.7751 15.08825068    11"
    ]
  }
}